{
  "norad_id": 51120,
  "name": "STARLINK-3398",
  "history": [
    {
      "epoch": "2026-03-28T19:10:51.841632Z",
      "apogee_km": 540.5163524722348,
      "perigee_km": 538.9392176585361,
      "latitude_deg": -1.65589157757429e-05,
      "longitude_deg": 89.41430656582564,
      "height_km": 540.4697944549793,
      "semi_major_axis_km": 6917.864785065385,
      "eccentricity": 0.00011399,
      "inclination_deg": 53.2179,
      "raan_deg": 203.3448,
      "arg_perigee_deg": 78.7317,
      "mean_anomaly_deg": 281.3803,
      "mean_motion_rev_day": 15.08845105
    }
  ]
}